{"fetched_at":"2026-07-23T07:05:17.272Z","source":"https://celestrak.org/NORAD/elements/gp.php?GROUP=kuiper&FORMAT=JSON","constellation":"kuiper","records":[{"OBJECT_NAME":"KUIPER-00629","OBJECT_ID":"2026-151W","EPOCH":"2026-07-22T20:00:01.999872","CLASSIFICATION_TYPE":"U","MEAN_MOTION":15.25475257,"ECCENTRICITY":0.00061054,"INCLINATION":51.8822,"RA_OF_ASC_NODE":143.9298,"ARG_OF_PERICENTER":189.2309,"MEAN_ANOMALY":191.5252,"EPHEMERIS_TYPE":0,"NORAD_CAT_ID":69783,"ELEMENT_SET_NO":999,"REV_AT_EPOCH":351,"BSTAR":-0.067392101,"MEAN_MOTION_DOT":-0.01576952,"MEAN_MOTION_DDOT":0},{"OBJECT_NAME":"KUIPER-00631","OBJECT_ID":"2026-151X","EPOCH":"2026-07-22T20:00:01.999872","CLASSIFICATION_TYPE":"U","MEAN_MOTION":15.25318951,"ECCENTRICITY":0.0007931,"INCLINATION":51.8786,"RA_OF_ASC_NODE":143.8826,"ARG_OF_PERICENTER":189.2917,"MEAN_ANOMALY":201.1062,"EPHEMERIS_TYPE":0,"NORAD_CAT_ID":69784,"ELEMENT_SET_NO":999,"REV_AT_EPOCH":130,"BSTAR":-0.049127797,"MEAN_MOTION_DOT":-0.01144446,"MEAN_MOTION_DDOT":0},{"OBJECT_NAME":"KUIPER-00634","OBJECT_ID":"2026-151Y","EPOCH":"2026-07-22T20:26:37.267008","CLASSIFICATION_TYPE":"U","MEAN_MOTION":15.37899454,"ECCENTRICITY":0.0003679,"INCLINATION":51.877,"RA_OF_ASC_NODE":143.3085,"ARG_OF_PERICENTER":157.895,"MEAN_ANOMALY":202.2196,"EPHEMERIS_TYPE":0,"NORAD_CAT_ID":69785,"ELEMENT_SET_NO":999,"REV_AT_EPOCH":319,"BSTAR":0.0009136839,"MEAN_MOTION_DOT":0.00034348,"MEAN_MOTION_DDOT":0},{"OBJECT_NAME":"KUIPER-00639","OBJECT_ID":"2026-151Z","EPOCH":"2026-07-22T19:31:24.565728","CLASSIFICATION_TYPE":"U","MEAN_MOTION":15.34572576,"ECCENTRICITY":0.00097242,"INCLINATION":51.8692,"RA_OF_ASC_NODE":143.7854,"ARG_OF_PERICENTER":185.7008,"MEAN_ANOMALY":174.3868,"EPHEMERIS_TYPE":0,"NORAD_CAT_ID":69786,"ELEMENT_SET_NO":999,"REV_AT_EPOCH":318,"BSTAR":0.0005149136,"MEAN_MOTION_DOT":0.00017192,"MEAN_MOTION_DDOT":0},{"OBJECT_NAME":"KUIPER-00641","OBJECT_ID":"2026-151AA","EPOCH":"2026-07-22T07:12:40.257216","CLASSIFICATION_TYPE":"U","MEAN_MOTION":15.3398819,"ECCENTRICITY":0.00116071,"INCLINATION":51.8685,"RA_OF_ASC_NODE":146.3427,"ARG_OF_PERICENTER":193.7001,"MEAN_ANOMALY":166.3671,"EPHEMERIS_TYPE":0,"NORAD_CAT_ID":69787,"ELEMENT_SET_NO":999,"REV_AT_EPOCH":310,"BSTAR":-0.0008772709,"MEAN_MOTION_DOT":-0.00029618,"MEAN_MOTION_DDOT":0},{"OBJECT_NAME":"KUIPER-00644","OBJECT_ID":"2026-151AB","EPOCH":"2026-07-22T22:23:43.353024","CLASSIFICATION_TYPE":"U","MEAN_MOTION":15.36512987,"ECCENTRICITY":0.00078022,"INCLINATION":51.8734,"RA_OF_ASC_NODE":143.0965,"ARG_OF_PERICENTER":186.8258,"MEAN_ANOMALY":173.2624,"EPHEMERIS_TYPE":0,"NORAD_CAT_ID":69788,"ELEMENT_SET_NO":999,"REV_AT_EPOCH":319,"BSTAR":-0.00038080213,"MEAN_MOTION_DOT":-0.0001416,"MEAN_MOTION_DDOT":0},{"OBJECT_NAME":"KUIPER-00646","OBJECT_ID":"2026-151AC","EPOCH":"2026-07-22T19:27:10.745856","CLASSIFICATION_TYPE":"U","MEAN_MOTION":15.35308454,"ECCENTRICITY":0.00097984,"INCLINATION":51.8703,"RA_OF_ASC_NODE":143.768,"ARG_OF_PERICENTER":190.8345,"MEAN_ANOMALY":169.2432,"EPHEMERIS_TYPE":0,"NORAD_CAT_ID":69789,"ELEMENT_SET_NO":999,"REV_AT_EPOCH":318,"BSTAR":0.00046821225,"MEAN_MOTION_DOT":0.00015972,"MEAN_MOTION_DDOT":0},{"OBJECT_NAME":"KUIPER-00647","OBJECT_ID":"2026-151AD","EPOCH":"2026-07-22T19:36:45.440640","CLASSIFICATION_TYPE":"U","MEAN_MOTION":15.34705962,"ECCENTRICITY":0.00101227,"INCLINATION":51.8664,"RA_OF_ASC_NODE":143.8059,"ARG_OF_PERICENTER":182.3706,"MEAN_ANOMALY":177.7233,"EPHEMERIS_TYPE":0,"NORAD_CAT_ID":69790,"ELEMENT_SET_NO":999,"REV_AT_EPOCH":318,"BSTAR":0.00076475042,"MEAN_MOTION_DOT":0.00025863,"MEAN_MOTION_DDOT":0},{"OBJECT_NAME":"KUIPER-00662","OBJECT_ID":"2026-151AE","EPOCH":"2026-07-22T20:00:01.999872","CLASSIFICATION_TYPE":"U","MEAN_MOTION":15.26882228,"ECCENTRICITY":0.00086175,"INCLINATION":51.8779,"RA_OF_ASC_NODE":143.859,"ARG_OF_PERICENTER":178.1934,"MEAN_ANOMALY":190.8161,"EPHEMERIS_TYPE":0,"NORAD_CAT_ID":69791,"ELEMENT_SET_NO":999,"REV_AT_EPOCH":220,"BSTAR":-0.027896974,"MEAN_MOTION_DOT":-0.006923,"MEAN_MOTION_DDOT":0}]}
